259P/Garradd,e,15.8902,51.4519,257.6301,2.730187,0.2184819,0.33856486,300.7066,05/13.0/2021,2000,g 15.5,4.0
# From MPEC 2020-SI8
260P/McNaught,e,15.0563,349.3396,18.4087,3.622793,0.1429351,0.60910328,87.3190,05/13.0/2021,2000,g 13.5,4.0
# From MPEC 2021-J28
261P/Larson,e,6.0754,291.1594,67.1527,3.490132,0.1511615,0.42319134,104.9179,05/13.0/2021,2000,g 14.0,4.0
# From MPC 82322
262P/McNaught-Russell,e,29.2124,217.8867,171.0102,6.874726,0.0546791,0.81557465,168.6787,05/13.0/2021,2000,g 13.5,4.0
# From MPC 89018
263P/Gibbs,e,11.5366,105.7379,34.5553,3.050364,0.1850020,0.59203654,243.8142,05/13.0/2021,2000,g  9.0,4.0
# From MPC114608
264P/Larsen,e,25.1404,220.6798,346.7295,3.895594,0.1281869,0.37483814,82.9504,05/13.0/2021,2000,g 13.0,4.0
# From MPC 79870
265P/LINEAR,e,14.3650,342.9271,33.4274,4.251412,0.1124357,0.64741238,10.4512,05/13.0/2021,2000,g 14.5,4.0
# From MPEC 2021-F20
266P/Christensen,e,3.4268,4.9965,97.7968,3.534381,0.1483317,0.33944051,57.6498,05/13.0/2021,2000,g 14.7,4.0
# From MPC114608
267P/LONEOS,e,6.1386,228.6263,114.1376,3.211885,0.1712238,0.61425622,175.5160,05/13.0/2021,2000,g 19.5,4.0
# From MPC 92277
268P/Bernardi,e,16.1456,127.5842,359.9255,4.544872,0.1017236,0.47435566,224.8528,05/13.0/2021,2000,g 14.0,4.0
# From MPC104795
269P/Jedicke,e,7.0724,241.7085,225.8769,7.077219,0.0523492,0.43044623,126.5583,05/13.0/2021,2000,g 10.0,4.0
# From MPC 88332
270P/Gehrels,e,2.9195,222.9779,209.8386,6.666064,0.0572664,0.46741820,165.9061,05/13.0/2021,2000,g  8.0,4.0
# From MPC 92277
271P/van Houten-Lemmon,e,6.8696,9.3073,36.4040,7.043930,0.0527207,0.39412505,150.9102,05/13.0/2021,2000,g 11.0,4.0
# From MPC 81862
272P/NEAT,e,18.0761,109.4670,27.9414,4.456594,0.1047610,0.45431093,314.9304,05/13.0/2021,2000,g 16.0,2.0
# From MPC 82723
273P/Pons-Gambart,e,136.7937,320.4011,20.3264,31.81729,0.0054917,0.97410189,0.0000,12/18.1466/2012,2000,g 11.5,4.0
# From MPC 88332
274P/Tombaugh-Tenagra,e,15.8174,81.3391,38.4893,4.372655,0.1077919,0.43899342,324.3690,05/13.0/2021,2000,g 13.0,4.0
# From MPC 81862
275P/Hermann,e,21.2751,348.7572,174.0672,5.772844,0.0710590,0.71238863,217.8802,05/13.0/2021,2000,g 17.0,4.0
# From MPEC 2020-K19
276P/Vorobjov,e,14.8119,211.3995,199.7367,5.317102,0.0803881,0.26723066,254.4740,05/13.0/2021,2000,g 11.5,4.0
# From MPEC 2021-F20
277P/LINEAR,e,16.7782,276.3447,152.3159,3.852986,0.1303191,0.50571840,17.4404,05/13.0/2021,2000,g 15.1,4.0
# From MPEC 2020-W26
278P/McNaught,e,6.6869,15.4077,238.0883,3.696224,0.1386969,0.43553751,33.7004,05/13.0/2021,2000,g 14.0,4.0
# From MPC100285
279P/La Sagra,e,5.0524,346.2323,5.7876,3.574325,0.1458522,0.39845264,256.9423,05/13.0/2021,2000,g 14.0,4.0
# From MPC 89013
280P/Larsen,e,11.7753,131.3927,104.7945,4.529405,0.1022450,0.41766166,276.8130,05/13.0/2021,2000,g 12.5,4.0
# From MPC 83145
281P/MOSS,e,4.7196,87.1765,26.7549,4.871612,0.0916632,0.17185194,302.2099,05/13.0/2021,2000,g 11.0,4.0
# From MPC134066
282P/,e,5.8112,9.2948,217.6105,4.242388,0.1127946,0.18889272,341.4458,05/13.0/2021,2000,g 13.5,2.0
# From MPEC 2021-BE3
283P/Spacewatch,e,14.4548,161.1291,22.2537,4.139609,0.1170213,0.48493311,346.1884,05/13.0/2021,2000,g 16.0,2.0
# From MPEC 2020-K19
284P/McNaught,e,11.8608,144.2632,202.4989,3.680096,0.1396096,0.37623148,342.8476,05/13.0/2021,2000,g 13.0,4.0
# From MPC 85339
285P/LINEAR,e,25.0359,185.4998,178.4168,4.508209,0.1029670,0.61837161,297.2452,05/13.0/2021,2000,g 15.0,4.0
# From MPEC 2021-J28
286P/Christensen,e,17.0451,283.9589,24.8289,4.109324,0.1183174,0.42534573,316.8624,05/13.0/2021,2000,g 14.0,4.0
# From MPC 96868
287P/Christensen,e,16.3199,139.0451,188.9258,4.165680,0.1159245,0.27091061,269.3231,05/13.0/2021,2000,g 13.5,4.0
# From MPC134066
288P/,e,3.2393,83.1861,280.5148,3.049913,0.1850431,0.20143040,305.6048,05/13.0/2021,2000,g 16.0,2.0
# From MPEC 2021-F20
289P/Blanpain,e,5.8947,68.8856,9.8652,3.047009,0.1853077,0.68543036,94.3288,05/13.0/2021,2000,g 19.0,4.0
# From MPC 95214
290P/Jager,e,20.1861,302.6902,181.9628,6.204488,0.0637742,0.63039096,169.1010,05/13.0/2021,2000,g 10.5,4.0
# From MPC 89314
291P/NEAT,e,6.3084,238.0651,173.7982,4.522992,0.1024626,0.43560652,285.9213,05/13.0/2021,2000,g 13.0,4.0
# From MPC115887
292P/Li,e,24.2605,90.9813,319.4557,6.107433,0.0653004,0.58827262,173.6679,05/13.0/2021,2000,g 12.5,4.0
# From MPEC 2021-J28
293P/Spacewatch,e,9.0563,78.4087,41.0495,3.643990,0.1416897,0.41828030,20.5104,05/13.0/2021,2000,g 14.5,4.0
# From MPEC 2020-SI8
294P/LINEAR,e,18.2240,312.5869,235.4001,3.203843,0.1718689,0.59629021,91.0074,05/13.0/2021,2000,g 15.5,4.0
# From MPC 93589
295P/LINEAR,e,21.0736,7.4247,72.9056,5.306507,0.0806289,0.61614551,206.8480,05/13.0/2021,2000,g 12.0,4.0
# From MPEC 2020-SI8
296P/Garradd,e,25.2288,263.6236,350.1085,3.497616,0.1506767,0.47878527,35.7290,05/13.0/2021,2000,g 14.0,4.0
# From MPC102956
297P/Beshore,e,10.3285,97.6598,132.5150,3.442414,0.1543155,0.31924137,16.9881,05/13.0/2021,2000,g 15.0,4.0
# From MPC114609
298P/Christensen,e,7.8706,52.8221,100.6771,3.591833,0.1447871,0.38663272,36.0060,05/13.0/2021,2000,g 15.0,4.0
# From MPC101100
299P/Catalina-PANSTARRS,e,10.4746,271.6255,323.8883,4.385162,0.1073311,0.28149790,243.6664,05/13.0/2021,2000,g 11.5,4.0
# From MPC114609
300P/Catalina,e,5.6752,95.6591,222.8896,2.699987,0.2221578,0.69178276,204.9450,05/13.0/2021,2000,g 16.0,4.0
# From MPC 89014
301P/LINEAR-NEAT,e,10.3406,351.1760,193.6984,5.738789,0.0716925,0.58529064,175.6464,05/13.0/2021,2000,g 13.0,4.0
# From MPEC 2020-HN5
302P/Lemmon-PANSTARRS,e,6.0342,121.7547,208.2459,4.276222,0.1114586,0.23013510,204.6006,05/13.0/2021,2000,g 12.5,4.0
# From MPC 92278
303P/NEAT,e,7.0208,347.9710,356.8838,5.047532,0.0869131,0.51060711,208.5416,05/13.0/2021,2000,g 13.5,4.0
# From MPEC 2020-N08
304P/Ory,e,2.6067,58.9317,335.2332,3.150528,0.1762500,0.60052743,48.2188,05/13.0/2021,2000,g 16.5,4.0
# From MPC101100
305P/Skiff,e,11.6495,240.1167,147.2878,4.643932,0.0984862,0.69326496,233.4836,05/13.0/2021,2000,g 18.0,4.0
# From MPC 92278
306P/LINEAR,e,8.3111,341.3745,0.8392,3.123004,0.1785851,0.59330915,85.0196,05/13.0/2021,2000,g 19.0,4.0
# From MPC 92278
307P/LINEAR,e,4.4342,158.1523,222.1318,5.792918,0.0706900,0.67468637,165.0499,05/13.0/2021,2000,g 15.0,4.0
# From MPC109148
308P/Lagerkvist-Carsenty,e,4.8508,63.0839,333.5914,6.604256,0.0580722,0.36339293,127.6855,05/13.0/2021,2000,g 13.0,2.0
# From MPC 94284
309P/LINEAR,e,17.0233,10.1416,49.9567,4.371718,0.1078266,0.61767301,246.5942,05/13.0/2021,2000,g 15.0,4.0
# From MPC 98566
310P/Hill,e,13.1278,8.9246,31.8260,4.178419,0.1153948,0.42184902,256.7502,05/13.0/2021,2000,g 13.5,4.0
# From MPEC 2021-BE3
311P/PANSTARRS,e,4.9696,279.2264,144.5848,2.188867,0.3043513,0.11551043,66.2135,05/13.0/2021,2000,g 17.0,4.0
# From MPEC 2021-BE3
312P/NEAT,e,19.7684,144.6694,207.5461,3.466486,0.1527109,0.42783672,35.1195,05/13.0/2021,2000,g 16.0,4.0
# From MPEC 2021-BE3
313P/Gibbs,e,10.9828,105.9735,254.6873,3.162453,0.1752540,0.23499245,68.7941,05/13.0/2021,2000,g 15.0,4.0
# From MPC105243
314P/Montani,e,3.9801,267.6142,214.1346,7.269621,0.0502848,0.41602365,84.3794,05/13.0/2021,2000,g  9.5,4.0
# From MPC115888
315P/LONEOS,e,17.7628,68.9344,65.6974,4.939235,0.0897872,0.52150308,146.0079,05/13.0/2021,2000,g 11.0,4.0
# From MPC 92279
316P/LONEOS-Christensen,e,9.8475,246.6456,193.3475,4.360878,0.1082289,0.15750779,220.7567,05/13.0/2021,2000,g 13.5,4.0
# From MPEC 2020-C98
317P/WISE,e,11.9498,275.5103,334.8915,2.964793,0.1930690,0.57049385,44.1805,05/13.0/2021,2000,g 17.5,4.0
# From MPC102103
318P/McNaught-Hartley,e,17.8775,35.5906,313.1725,7.498234,0.0480027,0.67521400,97.3165,05/13.0/2021,2000,g  8.5,6.0
# From MPC 97499
319P/Catalina-McNaught,e,15.0949,111.3752,203.6533,3.567401,0.1462771,0.66661677,312.8367,05/13.0/2021,2000,g 15.0,4.0
# From MPC 96281
320P/McNaught,e,4.9089,295.9292,0.7730,3.093513,0.1811450,0.68570936,20.9879,05/13.0/2021,2000,g 20.5,4.0
# From MPC105243
321P/SOHO,e,20.0761,165.0243,172.7396,2.423396,0.2612567,0.98110267,0.0000,01/17.3099/2020,2000,g 20.0,4.0
# From MPC102103
322P/SOHO,e,11.4645,351.5020,56.8982,2.508002,0.2481488,0.97981236,0.0000,08/31.4386/2019,2000,g 19.0,4.0
# From MPEC 2016-Y36
323P/SOHO,e,5.3386,324.3753,353.0539,2.582306,0.2375159,0.98484270,0.0000,01/17.7626/2021,2000,g 20.0,4.0
# From MPC108598
324P/La Sagra,e,21.4046,270.6194,57.6720,3.097371,0.1808066,0.15457513,1.2763,05/13.0/2021,2000,g 13.0,4.0
# From MPC114609
325P/Yang-Gao,e,16.6949,257.5698,343.6897,3.523853,0.1489969,0.59354412,312.2985,05/13.0/2021,2000,g 14.0,4.0
# From MPC103849
326P/Hill,e,2.4708,99.8119,278.5914,4.063582,0.1203207,0.31768652,244.2738,05/13.0/2021,2000,g 13.5,4.0
# From MPC 97499
327P/Van Ness,e,36.2499,173.9814,185.0337,3.562269,0.1465933,0.56301900,290.0047,05/13.0/2021,2000,g 16.0,4.0
# From MPC109148
328P/LONEOS-Tucker,e,17.6722,341.6317,30.4858,4.194717,0.1147229,0.55209136,225.5227,05/13.0/2021,2000,g 14.5,4.0
# From MPC101101
329P/LINEAR-Catalina,e,21.6714,87.6764,343.5329,5.191571,0.0833213,0.67712498,165.9079,05/13.0/2021,2000,g 13.5,4.0
# From MPC105243
330P/Catalina,e,15.6946,293.0952,188.9634,6.629385,0.0577423,0.54834684,99.3567,05/13.0/2021,2000,g 12.0,4.0
# From MPEC 2021-BE3
331P/Gibbs,e,9.7384,216.7747,183.9015,3.004206,0.1892821,0.04091960,42.5170,05/13.0/2021,2000,g 12.0,4.0
# From MPEC 2016-K18
332P/Ikeya-Murakami,e,9.3799,3.7874,152.3432,3.089252,0.1815198,0.48948266,342.3158,05/13.0/2021,2000,g 18.0,4.0
# From MPEC 2016-EI8
332P-B/Ikeya-Murakami,e,9.3805,3.8028,152.3711,3.082329,0.1821317,0.48970701,359.9699,03/17.0/2016,2000,g 19.0,4.0
# From MPEC 2016-K18
332P-C/Ikeya-Murakami,e,9.3789,3.7878,152.3345,3.089218,0.1815228,0.48948812,342.3297,05/13.0/2021,2000,g 16.5,4.0
# From MPEC 2016-ED0
332P-D/Ikeya-Murakami,e,9.3761,3.7923,152.4393,3.081138,0.1822373,0.48977814,359.9486,03/17.0/2016,2000,g 19.0,4.0
# From MPEC 2016-ED0
332P-E/Ikeya-Murakami,e,9.3774,3.8228,152.2825,3.079877,0.1823493,0.48922008,359.9889,03/17.0/2016,2000,g 21.0,4.0
# From MPEC 2016-ED0
